OBJECT_NAME,OBJECT_ID,EPOCH,MEAN_MOTION,ECCENTRICITY,INCLINATION,RA_OF_ASC_NODE,ARG_OF_PERICENTER,MEAN_ANOMALY,EPHEMERIS_TYPE,CLASSIFICATION_TYPE,NORAD_CAT_ID,ELEMENT_SET_NO,REV_AT_EPOCH,BSTAR,MEAN_MOTION_DOT,MEAN_MOTION_DDOT
BEIDOU-3 M28 (C50),2023-207A,2026-06-04T22:46:53.700096,1.86229818,.0003603,55.7423,62.7161,342.0403,17.9737,0,U,58654,999,1661,0,-.42E-6,0
BEIDOU-3 M26 (C48),2023-207B,2026-06-03T03:15:36.834336,1.86229917,.0003644,55.7428,62.7637,315.9700,44.0214,0,U,58655,999,1656,0,-.5E-6,0
GSAT0225 (GALILEO 29),2024-079A,2026-06-04T19:11:45.083904,1.70474236,.00018891,55.1115,101.4267,291.2198,252.0440,0,U,59598,999,1310,0,.15E-6,0
GSAT0227 (GALILEO 30),2024-079C,2026-06-04T02:21:06.922656,1.70474129,.00018215,55.1072,101.4444,42.0743,317.8998,0,U,59600,999,1314,0,.11E-6,0
GSAT0232 (GALILEO 32),2024-167A,2026-06-05T12:23:25.109376,1.70474551,.0005893,55.1880,221.6344,224.4128,141.5523,0,U,61182,999,1068,0,.42E-6,0
GSAT0226 (GALILEO 31),2024-167B,2026-06-05T08:52:54.910272,1.70474512,.0002669,55.1867,221.6456,221.7254,145.8617,0,U,61183,999,1065,0,.42E-6,0
BEIDOU-3 M25 (C47),2024-168B,2026-06-04T20:04:47.499168,1.86230297,.00030638,54.4852,302.6721,306.3392,231.2716,0,U,61186,999,1155,0,-.58E-6,0
BEIDOU-3 M27 (C49),2024-168C,2026-06-05T09:39:53.991936,1.86230356,.0001771,54.4801,302.6355,47.4738,284.6672,0,U,61187,999,903,0,-.56E-6,0
GPS BIII-7  (PRN 01),2024-242A,2026-06-04T21:01:45.812352,2.00571595,.001738,54.8548,334.6808,4.3372,355.2170,0,U,62339,999,1100,0,-.72E-6,0
QZS-6 (QZSS/PRN 200),2025-023A,2026-06-05T17:22:07.216896,1.00275013,.00021,0.0237,38.1902,44.7320,162.2366,0,U,62876,999,483,0,-.221E-5,0
COSMOS 2584 (704K),2025-042A,2026-06-04T22:32:59.851968,2.13103948,.00058312,65.0776,73.2182,229.2014,130.7692,0,U,63130,999,978,0,-.9E-7,0
GPS BIII-8  (PRN 21),2025-116A,2026-06-04T08:47:30.944832,2.00577081,.00084526,55.2259,31.6468,337.8257,196.1658,0,U,64202,999,761,0,-.73E-6,0
COSMOS 2596 (708K),2025-206B,2026-05-29T16:25:48.887904,2.13100909,.00111512,64.6467,315.6290,314.6394,43.2361,0,U,65590,999,551,0,-.68E-6,0
GSAT0233 (GALILEO 33),2025-302A,2026-06-04T16:25:14.919744,1.70474377,.00013491,54.3286,102.4877,235.7171,167.4266,0,U,67160,999,291,0,.15E-6,0
GSAT0234 (GALILEO 34),2025-302C,2026-06-03T20:33:01.967328,1.70474390,.0003271,54.3286,102.5103,302.9496,132.1778,0,U,67162,999,295,0,.1E-6,0
GPS BIII-9  (PRN 20),2026-017A,2026-06-05T05:33:50.638176,2.00571538,.0022664,55.0812,89.2351,257.5579,102.1794,0,U,67588,999,43137,0,.4E-7,0
